[Satellite]
VERSION=1.1
NAME=FLOCK 3P-69
NICKNAME=FLOCK 3P-69
TLE1=1 42020U 17008CA  17186.23009029  .00002671  00000-0  11784-3 0  9992
TLE2=2 42020  97.4975 247.5849 0009933 126.9302 233.2846 15.22617134 20009
